OBJECT_NAME,OBJECT_ID,EPOCH,MEAN_MOTION,ECCENTRICITY,INCLINATION,RA_OF_ASC_NODE,ARG_OF_PERICENTER,MEAN_ANOMALY,EPHEMERIS_TYPE,CLASSIFICATION_TYPE,NORAD_CAT_ID,ELEMENT_SET_NO,REV_AT_EPOCH,BSTAR,MEAN_MOTION_DOT,MEAN_MOTION_DDOT
STARLINK-37736,2026-115R,2026-06-15T22:00:01.999584,15.60706853,.00011162,97.2841,184.2894,85.6311,248.2907,0,U,69226,999,448,-.34276669E-1,-.2477285E-1,0
STARLINK-37737,2026-115S,2026-06-15T22:00:01.999584,15.62395031,.00013127,97.2855,184.3126,86.0789,293.5989,0,U,69227,999,450,-.31296289E-1,-.2423415E-1,0
STARLINK-37618,2026-115T,2026-06-15T22:00:01.999584,15.49124537,.00018478,97.2841,184.1957,82.4034,32.8316,0,U,69228,999,448,.1801808E-2,.98923E-3,0
STARLINK-37679,2026-115U,2026-06-15T22:00:01.999584,15.49134635,.00010515,97.2840,184.2025,83.8681,45.7903,0,U,69229,999,448,.20367731E-2,.11206E-2,0
STARLINK-37746,2026-115V,2026-06-15T22:00:01.999584,15.49135612,.00007925,97.2842,184.1837,126.7658,317.2466,0,U,69230,999,448,.18069735E-2,.99247E-3,0
STARLINK-37557,2026-115W,2026-06-15T22:00:01.999584,15.49138772,.00015824,97.2840,184.1262,96.3324,208.9710,0,U,69231,999,448,.19234242E-2,.10575E-2,0
STARLINK-37745,2026-115X,2026-06-15T22:00:01.999584,15.63951221,.00019877,97.2851,184.3290,61.5046,7.5122,0,U,69232,999,448,-.30634621E-1,-.2510051E-1,0
STARLINK-37739,2026-115Y,2026-06-15T22:00:01.999584,15.49092762,.00016396,97.2844,184.1800,64.4349,8.9093,0,U,69233,999,448,.19341064E-2,.106173E-2,0
STARLINK-37755,2026-115Z,2026-06-15T23:43:12.077472,15.75265859,.0001208,97.2830,184.3562,107.7927,252.3471,0,U,69234,999,449,.96088311E-3,.146148E-2,0
TJS-24,2026-116A,2026-06-15T22:02:43.648800,1.00272300,.00002856,0.0128,29.0236,3.2078,292.9211,0,U,69235,999,21,0,0,0
STARLINK-37665,2026-117A,2026-06-15T17:30:04.743648,15.82096022,.00009827,53.1580,250.9423,120.1779,239.9341,0,U,69238,999,274,.11250957E-2,.240955E-2,0
STARLINK-37558,2026-117B,2026-06-15T15:57:44.569152,15.82037340,.00007734,53.1579,251.2519,111.8596,248.2509,0,U,69239,999,273,.69282959E-3,.146073E-2,0
STARLINK-37680,2026-117C,2026-06-15T15:55:40.058976,15.82051429,.00007393,53.1581,251.2421,85.7350,274.3758,0,U,69240,999,273,.7156107E-3,.151087E-2,0
STARLINK-37742,2026-117D,2026-06-15T17:24:04.111776,15.82088648,.00009715,53.1584,250.9143,95.5500,264.5634,0,U,69241,999,274,.10928054E-2,.233741E-2,0
STARLINK-37718,2026-117E,2026-06-15T17:22:17.715360,15.82067561,.00017933,53.1587,250.9055,70.3727,289.7490,0,U,69242,999,274,.88175259E-3,.187261E-2,0
STARLINK-37735,2026-117F,2026-06-15T17:22:08.334912,15.82052067,.00012707,53.1586,250.9029,64.9863,295.1292,0,U,69243,999,274,.73243263E-3,.154726E-2,0
STARLINK-37757,2026-117G,2026-06-15T17:18:41.334336,15.82068381,.00011393,53.1585,250.8887,54.4487,305.6642,0,U,69244,999,274,.82323226E-3,.17453E-2,0
STARLINK-37767,2026-117H,2026-06-15T17:12:33.055200,15.82036425,.00008256,53.1582,250.8584,80.0175,280.0942,0,U,69245,999,274,.54692324E-3,.114736E-2,0
STARLINK-35759,2026-117J,2026-06-15T17:11:33.548928,15.82039190,.00006711,53.1583,250.8530,100.7149,259.3950,0,U,69246,999,274,.60170458E-3,.126489E-2,0
STARLINK-37238,2026-117K,2026-06-15T17:05:09.997728,15.82079115,.00009163,53.1581,250.8229,59.7159,300.3955,0,U,69247,999,274,.93941427E-3,.199953E-2,0
STARLINK-37412,2026-117L,2026-06-15T17:00:18.949824,15.82016944,.00011245,53.1581,250.8004,74.5640,285.5507,0,U,69248,999,274,.42967389E-3,.89642E-3,0
STARLINK-37398,2026-117M,2026-06-15T17:05:01.761216,15.80969041,.000087,53.1588,250.8217,105.2022,254.9097,0,U,69249,999,274,.10996034E-2,.22301E-2,0
STARLINK-37499,2026-117N,2026-06-15T16:57:50.594112,15.82039989,.00008424,53.1582,250.7881,85.1077,275.0042,0,U,69250,999,274,.51308928E-3,.107521E-2,0
STARLINK-37489,2026-117P,2026-06-15T16:55:18.570720,15.82061682,.0000893,53.1583,250.7764,100.0220,260.0904,0,U,69251,999,274,.85276207E-3,.180894E-2,0
STARLINK-37434,2026-117Q,2026-06-15T22:54:55.501920,15.82089992,.00019557,53.1578,249.4873,66.4767,293.6462,0,U,69252,999,278,.14197834E-2,.306501E-2,0
STARLINK-37368,2026-117R,2026-06-15T16:41:19.224096,15.82054638,.00010903,53.1578,250.7096,67.6274,292.4865,0,U,69253,999,274,.74943847E-3,.158422E-2,0
STARLINK-37517,2026-117S,2026-06-15T22:43:18.284160,15.82051085,.00006507,53.1574,249.4328,104.2955,255.8140,0,U,69254,999,278,.12789574E-2,.274508E-2,0
STARLINK-37378,2026-117T,2026-06-15T22:42:50.172192,15.82049187,.00020759,53.1578,249.4303,57.0336,303.0887,0,U,69255,999,278,.85964745E-3,.18229E-2,0
STARLINK-37396,2026-117U,2026-06-15T16:35:24.845856,15.82060823,.0000933,53.1575,250.6802,100.2663,259.8465,0,U,69256,999,274,.85157311E-3,.180628E-2,0
