STARLINK-37736          
1 69226U 26115R   26166.91668981 -.02477285  00000+0 -34277-1 0  9999
2 69226  97.2841 184.2894 0001116  85.6311 248.2907 15.60706853  4486
STARLINK-37737          
1 69227U 26115S   26166.91668981 -.02423415  00000+0 -31296-1 0  9994
2 69227  97.2855 184.3126 0001312  86.0789 293.5989 15.62395031  4503
STARLINK-37618          
1 69228U 26115T   26166.91668981  .00098923  00000+0  18018-2 0  9991
2 69228  97.2841 184.1957 0001847  82.4034  32.8316 15.49124537  4486
STARLINK-37679          
1 69229U 26115U   26166.91668981  .00112060  00000+0  20368-2 0  9992
2 69229  97.2840 184.2025 0001051  83.8681  45.7903 15.49134635  4488
STARLINK-37746          
1 69230U 26115V   26166.91668981  .00099247  00000+0  18070-2 0  9992
2 69230  97.2842 184.1837 0000792 126.7658 317.2466 15.49135612  4481
STARLINK-37557          
1 69231U 26115W   26166.91668981  .00105750  00000+0  19234-2 0  9993
2 69231  97.2840 184.1262 0001582  96.3324 208.9710 15.49138772  4480
STARLINK-37745          
1 69232U 26115X   26166.91668981 -.02510051  00000+0 -30635-1 0  9999
2 69232  97.2851 184.3290 0001987  61.5046   7.5122 15.63951221  4488
STARLINK-37739          
1 69233U 26115Y   26166.91668981  .00106173  00000+0  19341-2 0  9994
2 69233  97.2844 184.1800 0001639  64.4349   8.9093 15.49092762  4480
STARLINK-37755          
1 69234U 26115Z   26166.98833423  .00146148  00000+0  96088-3 0  9997
2 69234  97.2830 184.3562 0001208 107.7927 252.3471 15.75265859  4492
TJS-24                  
1 69235U 26116A   26166.91856075  .00000000  00000+0  00000+0 0  9991
2 69235   0.0128  29.0236 0000285   3.2078 292.9211  1.00272300   219
STARLINK-37665          
1 69238U 26117A   26166.72922157  .00240955  00000+0  11251-2 0  9997
2 69238  53.1580 250.9423 0000982 120.1779 239.9341 15.82096022  2742
STARLINK-37558          
1 69239U 26117B   26166.66509918  .00146073  00000+0  69283-3 0  9992
2 69239  53.1579 251.2519 0000773 111.8596 248.2509 15.82037340  2739
STARLINK-37680          
1 69240U 26117C   26166.66365809  .00151087  00000+0  71561-3 0  9996
2 69240  53.1581 251.2421 0000739  85.7350 274.3758 15.82051429  2735
STARLINK-37742          
1 69241U 26117D   26166.72504759  .00233741  00000+0  10928-2 0  9990
2 69241  53.1584 250.9143 0000971  95.5500 264.5634 15.82088648  2748
STARLINK-37718          
1 69242U 26117E   26166.72381615  .00187261  00000+0  88175-3 0  9990
2 69242  53.1587 250.9055 0001793  70.3727 289.7490 15.82067561  2749
STARLINK-37735          
1 69243U 26117F   26166.72370758  .00154726  00000+0  73243-3 0  9997
2 69243  53.1586 250.9029 0001270  64.9863 295.1292 15.82052067  2746
STARLINK-37757          
1 69244U 26117G   26166.72131174  .00174530  00000+0  82323-3 0  9999
2 69244  53.1585 250.8887 0001139  54.4487 305.6642 15.82068381  2749
STARLINK-37767          
1 69245U 26117H   26166.71704925  .00114736  00000+0  54692-3 0  9999
2 69245  53.1582 250.8584 0000825  80.0175 280.0942 15.82036425  2744
STARLINK-35759          
1 69246U 26117J   26166.71636052  .00126489  00000+0  60170-3 0  9991
2 69246  53.1583 250.8530 0000671 100.7149 259.3950 15.82039190  2747
STARLINK-37238          
1 69247U 26117K   26166.71192127  .00199953  00000+0  93941-3 0  9990
2 69247  53.1581 250.8229 0000916  59.7159 300.3955 15.82079115  2740
STARLINK-37412          
1 69248U 26117L   26166.70855266  .00089642  00000+0  42967-3 0  9995
2 69248  53.1581 250.8004 0001124  74.5640 285.5507 15.82016944  2742
STARLINK-37398          
1 69249U 26117M   26166.71182594  .00223010  00000+0  10996-2 0  9999
2 69249  53.1588 250.8217 0000870 105.2022 254.9097 15.80969041  2746
STARLINK-37499          
1 69250U 26117N   26166.70683558  .00107521  00000+0  51309-3 0  9998
2 69250  53.1582 250.7881 0000842  85.1077 275.0042 15.82039989  2748
STARLINK-37489          
1 69251U 26117P   26166.70507605  .00180894  00000+0  85276-3 0  9991
2 69251  53.1583 250.7764 0000893 100.0220 260.0904 15.82061682  2749
STARLINK-37434          
1 69252U 26117Q   26166.95480905  .00306501  00000+0  14198-2 0  9991
2 69252  53.1578 249.4873 0001955  66.4767 293.6462 15.82089992  2780
STARLINK-37368          
1 69253U 26117R   26166.69536139  .00158422  00000+0  74944-3 0  9997
2 69253  53.1578 250.7096 0001090  67.6274 292.4865 15.82054638  2748
STARLINK-37517          
1 69254U 26117S   26166.94673940  .00274508  00000+0  12790-2 0  9992
2 69254  53.1574 249.4328 0000650 104.2955 255.8140 15.82051085  2789
STARLINK-37378          
1 69255U 26117T   26166.94641403  .00182290  00000+0  85965-3 0  9993
2 69255  53.1578 249.4303 0002075  57.0336 303.0887 15.82049187  2782
STARLINK-37396          
1 69256U 26117U   26166.69125979  .00180628  00000+0  85157-3 0  9997
2 69256  53.1575 250.6802 0000933 100.2663 259.8465 15.82060823  2749
